STARLINK-30445          
1 57873U 23144K   26194.27883064  .00000446  00000+0  25715-4 0  9991
2 57873  43.0027 296.0342 0001358 247.2470 112.8238 15.27578604156807
STARLINK-30447          
1 57874U 23144L   26194.23577736 -.00000286  00000+0 -89085-6 0  9990
2 57874  43.0012 270.4395 0001054 254.0944 105.9792 15.27580797157132
STARLINK-30434          
1 57875U 23144M   26193.63652914  .00000991  00000+0  45514-4 0  9994
2 57875  43.0025 299.8111 0001337 261.7609  98.3091 15.27582352156758
STARLINK-30429          
1 57876U 23144N   26194.29425275  .00002854  00000+0  11321-3 0  9994
2 57876  43.0018 296.1517 0001333 310.3570  49.7165 15.27573189156845
STARLINK-30284          
1 57877U 23144P   26194.19868601  .00000370  00000+0  22981-4 0  9994
2 57877  43.0019 259.7542 0001862 281.1057  78.9585 15.27580619157254
STARLINK-30433          
1 57878U 23144Q   26194.31080772 -.00000001  00000+0  94949-5 0  9990
2 57878  43.0044 295.4161 0001793 281.5222  78.5428 15.27577944156852
STARLINK-30358          
1 57879U 23144R   26194.31467227  .00000291  00000+0  20086-4 0  9995
2 57879  43.0026 295.4410 0001263 256.8093 103.2617 15.27570583156851
STARLINK-30436          
1 57880U 23144S   26194.25569882  .00000816  00000+0  39169-4 0  9995
2 57880  43.0048 295.8563 0001415 262.2123  97.8569 15.27582006156840
STARLINK-30339          
1 57882U 23144U   26194.30324419  .00002382  00000+0  96084-4 0  9997
2 57882  43.0054 296.2140 0002150 292.2692  67.7931 15.27580412156844
STARLINK-30282          
1 57883U 23144V   26194.30823024  .00000843  00000+0  40153-4 0  9990
2 57883  43.0000 295.3920 0001214 257.9241 102.1474 15.27586884156856
STARLINK-30340          
1 57884U 23144W   26194.31593959  .00000094  00000+0  12923-4 0  9995
2 57884  42.9996 295.4383 0001018 283.0431  77.0307 15.27582987156851
STARLINK-30279          
1 57885U 23144X   26194.31209184  .00001947  00000+0  80241-4 0  9996
2 57885  43.0003 295.4207 0001267 273.0045  87.0662 15.27581052156794
STARLINK-30465          
1 57891U 23146A   26194.40336108  .00000369  00000+0  22931-4 0  9991
2 57891  43.0016 324.1456 0001291 193.5631 166.5186 15.27577302156286
STARLINK-30470          
1 57892U 23146B   26194.38922683  .00000115  00000+0  13678-4 0  9995
2 57892  43.0008 324.0402 0000559 249.1175 110.9617 15.27581861156282
STARLINK-30473          
1 57893U 23146C   26193.83417138 -.00001521  00000+0 -45795-4 0  9998
2 57893  43.0034 327.5500 0000978 243.4328 116.6423 15.27567718156194
STARLINK-30443          
1 57894U 23146D   26194.40464819  .00001121  00000+0  50242-4 0  9998
2 57894  43.0014 324.1510 0001328 215.9029 144.1734 15.27580766156288
STARLINK-30467          
1 57895U 23146E   26194.39309073  .00004913  00000+0  18798-3 0  9998
2 57895  43.0036 324.0730 0001461 310.0505  50.0219 15.27571773156270
STARLINK-30469          
1 57896U 23146F   26194.40850477  .00001098  00000+0  49399-4 0  9993
2 57896  43.0004 324.1803 0000743 238.2113 121.8667 15.27580912156286
STARLINK-30474          
1 57897U 23146G   26194.41104985  .00001871  00000+0  77471-4 0  9992
2 57897  42.9921 324.1890 0002349 170.1125 189.9773 15.27594274156289
STARLINK-30479          
1 57898U 23146H   26194.41494091  .00002724  00000+0  10851-3 0  9999
2 57898  43.0033 324.2294 0000811 217.0806 142.9990 15.27569271156283
STARLINK-30481          
1 57899U 23146J   26194.41878587  .00002450  00000+0  98557-4 0  9992
2 57899  42.9978 324.2555 0001300 250.1113 109.9598 15.27574070156283
STARLINK-30457          
1 57900U 23146K   26194.37138148  .00002143  00000+0  87390-4 0  9994
2 57900  43.0035 324.7556 0002010 279.7220  80.3405 15.27576911155210
STARLINK-30472          
1 57901U 23146L   26194.33333005  .00000668  00000+0  33793-4 0  9998
2 57901  43.0031 321.0653 0001126 259.7466 100.3259 15.27577008155254
STARLINK-30462          
1 57902U 23146M   26194.42648928  .00000693  00000+0  34714-4 0  9994
2 57902  43.0036 324.3154 0001144 249.7622 110.3106 15.27584620156245
STARLINK-30449          
1 57903U 23146N   26194.39823209 -.00001431  00000+0 -42468-4 0  9996
2 57903  43.0068 324.1056 0002512 297.5593  62.5003 15.27567923155226
STARLINK-30466          
1 57904U 23146P   26194.43034676  .00001325  00000+0  57672-4 0  9997
2 57904  42.9996 324.3425 0001654 264.8412  95.2251 15.27576999155221
STARLINK-30428          
1 57906U 23146R   26194.36753190  .00000388  00000+0  23629-4 0  9993
2 57906  43.0027 324.7283 0001366 266.2402  93.8293 15.27580453155210
STARLINK-30482          
1 57907U 23146S   26194.37908808  .00000669  00000+0  33846-4 0  9997
2 57907  42.9921 324.8077 0001671 157.9820 202.1104 15.27583669155222
STARLINK-30464          
1 57908U 23146T   26194.37603075  .00000619  00000+0  32027-4 0  9991
2 57908  43.0049 328.1891 0001918 272.9985  87.0647 15.27580871155179
STARLINK-30463          
1 57909U 23146U   26194.38680384 -.00000042  00000+0  79699-5 0  9999
2 57909  42.9990 324.8670 0000602 205.4113 154.6709 15.27579299155211
