OBJECT_NAME,OBJECT_ID,EPOCH,MEAN_MOTION,ECCENTRICITY,INCLINATION,RA_OF_ASC_NODE,ARG_OF_PERICENTER,MEAN_ANOMALY,EPHEMERIS_TYPE,CLASSIFICATION_TYPE,NORAD_CAT_ID,ELEMENT_SET_NO,REV_AT_EPOCH,BSTAR,MEAN_MOTION_DOT,MEAN_MOTION_DDOT
STARLINK-30445,2023-144K,2026-07-13T06:41:30.967296,15.27578604,.0001358,43.0027,296.0342,247.2470,112.8238,0,U,57873,999,15680,.25715E-4,.446E-5,0
STARLINK-30447,2023-144L,2026-07-13T05:39:31.163904,15.27580797,.0001054,43.0012,270.4395,254.0944,105.9792,0,U,57874,999,15713,-.89085E-6,-.286E-5,0
STARLINK-30434,2023-144M,2026-07-12T15:16:36.117696,15.27582352,.0001337,43.0025,299.8111,261.7609,98.3091,0,U,57875,999,15675,.45513894E-4,.991E-5,0
STARLINK-30429,2023-144N,2026-07-13T07:03:43.437600,15.27573189,.0001333,43.0018,296.1517,310.3570,49.7165,0,U,57876,999,15684,.11321E-3,.2854E-4,0
STARLINK-30284,2023-144P,2026-07-13T04:46:06.471264,15.27580619,.0001862,43.0019,259.7542,281.1057,78.9585,0,U,57877,999,15725,.22981E-4,.37E-5,0
STARLINK-30433,2023-144Q,2026-07-13T07:27:33.787008,15.27577944,.0001793,43.0044,295.4161,281.5222,78.5428,0,U,57878,999,15685,.94949E-5,-.1E-7,0
STARLINK-30358,2023-144R,2026-07-13T07:33:07.684128,15.27570583,.0001263,43.0026,295.4410,256.8093,103.2617,0,U,57879,999,15685,.20086E-4,.291E-5,0
STARLINK-30436,2023-144S,2026-07-13T06:08:12.378048,15.27582006,.0001415,43.0048,295.8563,262.2123,97.8569,0,U,57880,999,15684,.39169E-4,.816E-5,0
STARLINK-30339,2023-144U,2026-07-13T07:16:40.298016,15.27580412,.000215,43.0054,296.2140,292.2692,67.7931,0,U,57882,999,15684,.96084E-4,.2382E-4,0
STARLINK-30282,2023-144V,2026-07-13T07:23:51.092736,15.27586884,.0001214,43.0000,295.3920,257.9241,102.1474,0,U,57883,999,15685,.40153E-4,.843E-5,0
STARLINK-30340,2023-144W,2026-07-13T07:34:57.180576,15.27582987,.0001018,42.9996,295.4383,283.0431,77.0307,0,U,57884,999,15685,.12923E-4,.94E-6,0
STARLINK-30279,2023-144X,2026-07-13T07:29:24.734976,15.27581052,.0001267,43.0003,295.4207,273.0045,87.0662,0,U,57885,999,15679,.80241E-4,.1947E-4,0
STARLINK-30465,2023-146A,2026-07-13T09:40:50.397312,15.27577302,.0001291,43.0016,324.1456,193.5631,166.5186,0,U,57891,999,15628,.22931E-4,.369E-5,0
STARLINK-30470,2023-146B,2026-07-13T09:20:29.198112,15.27581861,.0000559,43.0008,324.0402,249.1175,110.9617,0,U,57892,999,15628,.13678E-4,.115E-5,0
STARLINK-30473,2023-146C,2026-07-12T20:01:12.407232,15.27567718,.00009781,43.0034,327.5500,243.4328,116.6423,0,U,57893,999,15619,-.4579458E-4,-.1521E-4,0
STARLINK-30443,2023-146D,2026-07-13T09:42:41.603616,15.27580766,.0001328,43.0014,324.1510,215.9029,144.1734,0,U,57894,999,15628,.50242E-4,.1121E-4,0
STARLINK-30467,2023-146E,2026-07-13T09:26:03.039072,15.27571773,.0001461,43.0036,324.0730,310.0505,50.0219,0,U,57895,999,15627,.18798E-3,.4913E-4,0
STARLINK-30469,2023-146F,2026-07-13T09:48:14.812128,15.27580912,.0000743,43.0004,324.1803,238.2113,121.8667,0,U,57896,999,15628,.49399E-4,.1098E-4,0
STARLINK-30474,2023-146G,2026-07-13T09:51:54.707040,15.27594274,.0002349,42.9921,324.1890,170.1125,189.9773,0,U,57897,999,15628,.77471E-4,.1871E-4,0
STARLINK-30479,2023-146H,2026-07-13T09:57:30.894624,15.27569271,.0000811,43.0033,324.2294,217.0806,142.9990,0,U,57898,999,15628,.10851E-3,.2724E-4,0
STARLINK-30481,2023-146J,2026-07-13T10:03:03.099168,15.27574070,.00013,42.9978,324.2555,250.1113,109.9598,0,U,57899,999,15628,.98557E-4,.245E-4,0
STARLINK-30457,2023-146K,2026-07-13T08:54:47.359872,15.27576911,.000201,43.0035,324.7556,279.7220,80.3405,0,U,57900,999,15521,.8739E-4,.2143E-4,0
STARLINK-30472,2023-146L,2026-07-13T07:59:59.716320,15.27577008,.0001126,43.0031,321.0653,259.7466,100.3259,0,U,57901,999,15525,.33793E-4,.668E-5,0
STARLINK-30462,2023-146M,2026-07-13T10:14:08.673792,15.27584620,.0001144,43.0036,324.3154,249.7622,110.3106,0,U,57902,999,15624,.34714E-4,.693E-5,0
STARLINK-30449,2023-146N,2026-07-13T09:33:27.252576,15.27567923,.0002512,43.0068,324.1056,297.5593,62.5003,0,U,57903,999,15522,-.42468E-4,-.1431E-4,0
STARLINK-30466,2023-146P,2026-07-13T10:19:41.960064,15.27576999,.0001654,42.9996,324.3425,264.8412,95.2251,0,U,57904,999,15522,.57672E-4,.1325E-4,0
STARLINK-30428,2023-146R,2026-07-13T08:49:14.756160,15.27580453,.0001366,43.0027,324.7283,266.2402,93.8293,0,U,57906,999,15521,.23629E-4,.388E-5,0
STARLINK-30482,2023-146S,2026-07-13T09:05:53.210112,15.27583669,.0001671,42.9921,324.8077,157.9820,202.1104,0,U,57907,999,15522,.33846E-4,.669E-5,0
STARLINK-30464,2023-146T,2026-07-13T09:01:29.056800,15.27580871,.0001918,43.0049,328.1891,272.9985,87.0647,0,U,57908,999,15517,.32027E-4,.619E-5,0
STARLINK-30463,2023-146U,2026-07-13T09:16:59.851776,15.27579299,.0000602,42.9990,324.8670,205.4113,154.6709,0,U,57909,999,15521,.79699E-5,-.42E-6,0
